NORAD_CAT_ID,OBJECT_NAME,OBJECT_TYPE,EPOCH,MEAN_MOTION,ECCENTRICITY,INCLINATION,RA_OF_ASC_NODE,ARG_OF_PERICENTER,MEAN_ANOMALY,BSTAR,MEAN_MOTION_DOT,MEAN_MOTION_DDOT,TLE_LINE0,TLE_LINE1,TLE_LINE2,SEMIMAJOR_AXIS,PERIOD,APOGEE,PERIGEE,DECAYED
52540.0,STARLINK-3940,PAYLOAD,2022-07-29 14:00:01,15.08845789,0.0001986,53.2177,290.8236,40.4903,340.3912,-0.0019629,-0.00031398,0.0,0 STARLINK-3940,1 52540U 22051H   22210.58334491 -.00031398  00000-0 -19629-2 0  9995,2 52540  53.2177 290.8236 0001986  40.4903 340.3912 15.08845789  1308,6917.863,95.437,541.102,538.354,0.0
52540.0,STARLINK-3940,PAYLOAD,2022-07-29 22:00:00,15.08833152,0.0001823,53.2174,289.3261,40.261,352.208,-0.0017736,-0.00028399,0.0,0 STARLINK-3940,1 52540U 22051H   22210.91667824 -.00028399  00000-0 -17736-2 0  9995,2 52540  53.2174 289.3261 0001823  40.2610 352.2080 15.08833152  1308,6917.901,95.438,541.0269999999998,538.505,0.0
52540.0,STARLINK-3940,PAYLOAD,2022-07-30 14:00:01,15.088150099999998,0.0001933,53.2173,286.3349,39.5067,16.1207,0.0012759,0.00020062,0.0,0 STARLINK-3940,1 52540U 22051H   22211.58334491  .00020062  00000-0  12759-2 0  9997,2 52540  53.2173 286.3349 0001933  39.5067  16.1207 15.08815010 12526,6917.956999999999,95.439,541.159,538.485,0.0
52540.0,STARLINK-3940,PAYLOAD,2022-07-30 22:00:00,15.08838222,0.0001798,53.2169,284.8372,41.3716,25.8296,-0.0013673,-0.00021982,0.0,0 STARLINK-3940,1 52540U 22051H   22211.91667824 -.00021982  00000-0 -13673-2 0  9993,2 52540  53.2169 284.8372 0001798  41.3716  25.8296 15.08838222  1300,6917.886,95.438,540.995,538.507,0.0
52540.0,STARLINK-3940,PAYLOAD,2022-07-31 14:00:01,15.08817664,0.0001924,53.2165,281.846,39.965,50.4114,0.0016649,0.00026292,0.0,0 STARLINK-3940,1 52540U 22051H   22212.58334491  .00026292  00000-0  16649-2 0  9991,2 52540  53.2165 281.8460 0001924  39.9650  50.4114 15.08817664 12674,6917.949000000001,95.439,541.145,538.4830000000002,0.0
52540.0,STARLINK-3940,PAYLOAD,2022-07-31 22:00:00,15.08840725,0.000179,53.2162,280.3482,42.5086,59.4503,-0.0009167,-0.00014848,0.0,0 STARLINK-3940,1 52540U 22051H   22212.91667824 -.00014848  00000-0 -91670-3 0  9991,2 52540  53.2162 280.3482 0001790  42.5086  59.4503 15.08840725  1306,6917.878000000002,95.438,540.981,538.505,0.0
52540.0,STARLINK-3940,PAYLOAD,2022-08-01 14:00:01,15.08821274,0.0001956999999999,53.2159,277.3569,40.1833,84.96700000000001,0.0022372,0.00035479,0.0,0 STARLINK-3940,1 52540U 22051H   22213.58334491  .00035479  00000-0  22372-2 0  9999,2 52540  53.2159 277.3569 0001957  40.1833  84.9670 15.08821274 12828,6917.938,95.439,541.156,538.4490000000002,0.0
52540.0,STARLINK-3940,PAYLOAD,2022-08-01 22:00:00,15.08843797,0.0001819,53.2156,275.8589,43.0053,93.7351,-0.00046409,-7.667e-05,0.0,0 STARLINK-3940,1 52540U 22051H   22213.91667824 -.00007667  00000-0 -46409-3 0  9993,2 52540  53.2156 275.8589 0001819  43.0053  93.7351 15.08843797  1302,6917.869000000002,95.437,540.992,538.475,0.0
52540.0,STARLINK-3940,PAYLOAD,2022-08-02 06:00:02,15.08857624,0.000185,53.2157,274.3624,46.0207,102.3744,-0.00097077,-0.00015712,0.0,0 STARLINK-3940,1 52540U 22051H   22214.25002315 -.00015712  00000-0 -97077-3 0  9996,2 52540  53.2157 274.3624 0001850  46.0207 102.3744 15.08857624 12923,6917.8269999999975,95.436,540.971,538.4119999999998,0.0
52540.0,STARLINK-3940,PAYLOAD,2022-08-02 14:00:01,15.08824192,0.0002029999999999,53.2156,272.8675,40.0837,119.8631,0.0026601999999999,0.00042286,0.0,0 STARLINK-3940,1 52540U 22051H   22214.58334491  .00042286  00000-0  26602-2 0  9994,2 52540  53.2156 272.8675 0002030  40.0837 119.8631 15.08824192  1307,6917.929,95.439,541.198,538.389,0.0
52540.0,STARLINK-3940,PAYLOAD,2022-08-03 06:00:00,15.08877353,0.0001904,53.2157,269.873,44.7162,138.4278,-0.003927,-0.00062311,0.0,0 STARLINK-3940,1 52540U 22051H   22215.25001157 -.00062311  00000-0 -39270-2 0  9997,2 52540  53.2157 269.8730 0001904  44.7162 138.4278 15.08877353 13086,6917.766,95.435,540.948,538.314,0.0
52540.0,STARLINK-3940,PAYLOAD,2022-08-03 14:00:01,15.08804683,0.0002056999999999,53.2158,268.3779,37.5816,157.1839,0.0029962,0.00047674,0.0,0 STARLINK-3940,1 52540U 22051H   22215.58334491  .00047674  00000-0  29962-2 0  9993,2 52540  53.2158 268.3779 0002057  37.5816 157.1839 15.08804683  1309,6917.988,95.44,541.276,538.43,0.0
52540.0,STARLINK-3940,PAYLOAD,2022-08-03 22:00:01,15.0882583,0.0001899,53.216,266.8797,40.3956,166.012,0.00058012,8.953e-05,0.0,0 STARLINK-3940,1 52540U 22051H   22215.91668981  .00008953  00000-0  58012-3 0  9990,2 52540  53.2160 266.8797 0001899  40.3956 166.0120 15.08825830 13183,6917.924,95.438,541.102,538.475,0.0
52540.0,STARLINK-3940,PAYLOAD,2022-08-04 14:00:01,15.08815128,0.000215,53.2162,263.8885,38.0738,191.4518,0.0030031,0.00047799,0.0,0 STARLINK-3940,1 52540U 22051H   22216.58334491  .00047799  00000-0  30031-2 0  9991,2 52540  53.2162 263.8885 0002150  38.0738 191.4518 15.08815128  1306,6917.956,95.439,541.309,538.3340000000002,0.0
52540.0,STARLINK-3940,PAYLOAD,2022-08-04 22:00:00,15.08830523,0.0001976,53.2165,262.3903,41.2627,199.8552,0.0010642,0.00016685,0.0,0 STARLINK-3940,1 52540U 22051H   22216.91667824  .00016685  00000-0  10642-2 0  9993,2 52540  53.2165 262.3903 0001976  41.2627 199.8552 15.08830523  1308,6917.909000000002,95.438,541.141,538.4069999999998,0.0
52540.0,STARLINK-3940,PAYLOAD,2022-08-05 06:00:02,15.08822856,0.0002083,53.2167,260.8945,47.0755,205.6363,-0.001424,-0.0002287,0.0,0 STARLINK-3940,1 52540U 22051H   22217.25002315 -.00022870  00000-0 -14240-2 0  9992,2 52540  53.2167 260.8945 0002083  47.0755 205.6363 15.08822856 13382,6917.933000000001,95.439,541.239,538.357,0.0
52540.0,STARLINK-3940,PAYLOAD,2022-08-05 14:00:01,15.08782369,0.0002207,53.2166,259.3994,41.6165,222.6643,0.0055836,0.00089566,0.0,0 STARLINK-3940,1 52540U 22051H   22217.58335648  .00089566  00000-0  55836-2 0  9995,2 52540  53.2166 259.3994 0002207  41.6165 222.6643 15.08782369  1304,6918.057,95.441,541.448,538.395,0.0
52540.0,STARLINK-3940,PAYLOAD,2022-08-05 22:00:00,15.08824855,0.0001985,53.2169,257.9013,44.4512,231.3374,0.0015806,0.00024947,0.0,0 STARLINK-3940,1 52540U 22051H   22217.91667824  .00024947  00000-0  15806-2 0  9991,2 52540  53.2169 257.9013 0001985  44.4512 231.3374 15.08824855  1307,6917.927,95.439,541.165,538.418,0.0
52540.0,STARLINK-3940,PAYLOAD,2022-08-06 00:00:02,15.08816205,0.0001953,53.2167,257.5269,45.9446,322.8072,0.0030112,0.00047931,0.0,0 STARLINK-3940,1 52540U 22051H   22218.00002315  .00047931  00000-0  30112-2 0  9995,2 52540  53.2167 257.5269 0001953  45.9446 322.8072 15.08816205 13495,6917.953,95.439,541.169,538.467,0.0
52540.0,STARLINK-3940,PAYLOAD,2022-08-06 12:40:49,15.0883602,0.0002063,53.2169,255.1563,46.1389,313.9774,7.5908e-05,9.2e-06,0.0,0 STARLINK-3940,1 52540U 22051H   22218.52834820  .00000920  00000-0  75908-4 0  9997,2 52540  53.2169 255.1563 0002063  46.1389 313.9774 15.08836020 13576,6917.893,95.438,541.185,538.33,0.0
52540.0,STARLINK-3940,PAYLOAD,2022-08-06 22:00:00,15.08827712,0.0001981,53.2167,253.4123,45.761,264.826,0.0020721,0.00032833,0.0,0 STARLINK-3940,1 52540U 22051H   22218.91667824  .00032833  00000-0  20721-2 0  9997,2 52540  53.2167 253.4123 0001981  45.7610 264.8260 15.08827712  1307,6917.918000000002,95.438,541.153,538.413,0.0
52540.0,STARLINK-3940,PAYLOAD,2022-08-07 14:00:01,15.08838414,0.0002166999999999,53.2162,250.4213,41.8975,291.8943,0.0016538,0.00026129,0.0,0 STARLINK-3940,1 52540U 22051H   22219.58334491  .00026129  00000-0  16538-2 0  9994,2 52540  53.2162 250.4213 0002167  41.8975 291.8943 15.08838414  1306,6917.885,95.438,541.249,538.251,0.0
52540.0,STARLINK-3940,PAYLOAD,2022-08-07 22:00:00,15.08831719,0.000198,53.2161,248.9233,47.4245,297.9837,0.0025581,0.0004065,0.0,0 STARLINK-3940,1 52540U 22051H   22219.91667824  .00040650  00000-0  25581-2 0  9993,2 52540  53.2161 248.9233 0001980  47.4245 297.9837 15.08831719  1303,6917.906,95.438,541.14,538.401,0.0
52540.0,STARLINK-3940,PAYLOAD,2022-08-08 14:00:01,15.08863537,0.0002142,53.2154,245.9322,41.9635,326.733,-0.0014681,-0.00023593,0.0,0 STARLINK-3940,1 52540U 22051H   22220.58335648 -.00023593  00000-0 -14681-2 0  9992,2 52540  53.2154 245.9322 0002142  41.9635 326.7330 15.08863537  1306,6917.808000000001,95.436,541.155,538.192,0.0
52540.0,STARLINK-3940,PAYLOAD,2022-08-08 22:00:00,15.0881677,0.0001926,53.2153,244.4342,46.7532,333.5059,0.0029605,0.00047114,0.0,0 STARLINK-3940,1 52540U 22051H   22220.91667824  .00047114  00000-0  29605-2 0  9998,2 52540  53.2153 244.4342 0001926  46.7532 333.5059 15.08816770  1300,6917.951,95.439,541.149,538.484,0.0
52540.0,STARLINK-3940,PAYLOAD,2022-08-09 14:00:01,15.08840779,0.0002112999999999,53.2147,241.4431,40.3517,3.0929,-0.0015442,-0.00024781,0.0,0 STARLINK-3940,1 52540U 22051H   22221.58334491 -.00024781  00000-0 -15442-2 0  9994,2 52540  53.2147 241.4431 0002113  40.3517   3.0929 15.08840779 14036,6917.878000000002,95.438,541.205,538.281,0.0
52540.0,STARLINK-3940,PAYLOAD,2022-08-09 22:00:00,15.08796785,0.0001915,53.2146,239.945,45.0438,9.9947,0.0028546999999999,0.00045384,0.0,0 STARLINK-3940,1 52540U 22051H   22221.91667824  .00045384  00000-0  28547-2 0  9990,2 52540  53.2146 239.9450 0001915  45.0438   9.9947 15.08796785  1309,6918.012,95.44,541.202,538.553,0.0
52540.0,STARLINK-3940,PAYLOAD,2022-08-10 14:00:01,15.0882522,0.0002181,53.2143,236.9538,40.4058,37.7722,0.00048012,7.358e-05,0.0,0 STARLINK-3940,1 52540U 22051H   22222.58334491  .00007358  00000-0  48012-3 0  9994,2 52540  53.2143 236.9538 0002181  40.4058  37.7722 15.08825220  1300,6917.926,95.438,541.299,538.2819999999998,0.0
52540.0,STARLINK-3940,PAYLOAD,2022-08-10 17:07:18,15.08842347,0.0002125,53.2145,236.36900000000003,42.8595,22.2086,-0.0020328,-0.00032498,0.0,0 STARLINK-3940,1 52540U 22051H   22222.71341435 -.00032498  00000-0 -20328-2 0  9999,2 52540  53.2145 236.3690 0002125  42.8595  22.2086 15.08842347 14209,6917.873000000001,95.437,541.2080000000002,538.268,0.0
